{"type": "FeatureCollection", "features": [ {"type": "Feature", "properties": {"norad_id": 66898, "name": "STARLINK-36065", "group": "last-30-days", "lat": 42.47844902669347, "lon": 169.6799711501761, "alt_km": 340.88377442615, "timestamp": "2025-12-20T20:38:43.174076+00:00", "meta": {"OBJECT_NAME": "STARLINK-36065", "OBJECT_ID": "2025-283W", "EPOCH": "2025-12-20T14:00:03.000384", "MEAN_MOTION": 15.74181412, "ECCENTRICITY": 9.366e-05, "INCLINATION": 53.1577, "RA_OF_ASC_NODE": 34.4113, "ARG_OF_PERICENTER": 78.2646, "MEAN_ANOMALY": 274.2501, "EPHEMERIS_TYPE": 0, "CLASSIFICATION_TYPE": "U", "NORAD_CAT_ID": 66898, "ELEMENT_SET_NO": 999, "REV_AT_EPOCH": 368, "BSTAR": -2.6494008e-05, "MEAN_MOTION_DOT": -4.505e-05, "MEAN_MOTION_DDOT": 0}, "tle": {"line1": "1 66898U 25283W   25354.58336806 -.00004505  00000+0 -26494-4 0  9999", "line2": "2 66898  53.1577  34.4113 0000936  78.2646 274.2501 15.74181412  3686"}}, "geometry": {"type": "Point", "coordinates": [169.6799711501761, 42.47844902669347]}}, {"type": "Feature", "properties": {"norad_id": 66899, "name": "STARLINK-36064", "group": "last-30-days", "lat": 41.3384409735554, "lon": 171.76300914586974, "alt_km": 340.75886513677597, "timestamp": "2025-12-20T20:38:43.174086+00:00", "meta": {"OBJECT_NAME": "STARLINK-36064", "OBJECT_ID": "2025-283X", "EPOCH": "2025-12-20T14:00:03.000384", "MEAN_MOTION": 15.74173333, "ECCENTRICITY": 0.00014342, "INCLINATION": 53.1575, "RA_OF_ASC_NODE": 34.4073, "ARG_OF_PERICENTER": 86.4227, "MEAN_ANOMALY": 268.0192, "EPHEMERIS_TYPE": 0, "CLASSIFICATION_TYPE": "U", "NORAD_CAT_ID": 66899, "ELEMENT_SET_NO": 999, "REV_AT_EPOCH": 363, "BSTAR": 2.6262387e-05, "MEAN_MOTION_DOT": 3.216e-05, "MEAN_MOTION_DDOT": 0}, "tle": {"line1": "1 66899U 25283X   25354.58336806  .00003216  00000+0  26262-4 0  9999", "line2": "2 66899  53.1575  34.4073 0001434  86.4227 268.0192 15.74173333  3635"}}, "geometry": {"type": "Point", "coordinates": [171.76300914586974, 41.3384409735554]}}, {"type": "Feature", "properties": {"norad_id": 66900, "name": "STARLINK-36074", "group": "last-30-days", "lat": 40.17351093668134, "lon": 173.75402403665416, "alt_km": 341.3524039768872, "timestamp": "2025-12-20T20:38:43.174097+00:00", "meta": {"OBJECT_NAME": "STARLINK-36074", "OBJECT_ID": "2025-283Y", "EPOCH": "2025-12-20T14:00:03.000384", "MEAN_MOTION": 15.74157254, "ECCENTRICITY": 0.00010537, "INCLINATION": 53.1573, "RA_OF_ASC_NODE": 34.4032, "ARG_OF_PERICENTER": 65.8922, "MEAN_ANOMALY": 290.4627, "EPHEMERIS_TYPE": 0, "CLASSIFICATION_TYPE": "U", "NORAD_CAT_ID": 66900, "ELEMENT_SET_NO": 999, "REV_AT_EPOCH": 368, "BSTAR": 0.00022302698, "MEAN_MOTION_DOT": 0.00032113, "MEAN_MOTION_DDOT": 0}, "tle": {"line1": "1 66900U 25283Y   25354.58336806  .00032113  00000+0  22303-3 0  9991", "line2": "2 66900  53.1573  34.4032 0001053  65.8922 290.4627 15.74157254  3682"}}, "geometry": {"type": "Point", "coordinates": [173.75402403665416, 40.17351093668134]}}, {"type": "Feature", "properties": {"norad_id": 66901, "name": "STARLINK-36043", "group": "last-30-days", "lat": 38.966358817051926, "lon": 175.6917235464504, "alt_km": 341.3658717552844, "timestamp": "2025-12-20T20:38:43.174130+00:00", "meta": {"OBJECT_NAME": "STARLINK-36043", "OBJECT_ID": "2025-283Z", "EPOCH": "2025-12-20T14:00:03.000384", "MEAN_MOTION": 15.74240491, "ECCENTRICITY": 0.00015151, "INCLINATION": 53.1576, "RA_OF_ASC_NODE": 34.3991, "ARG_OF_PERICENTER": 62.4467, "MEAN_ANOMALY": 295.7649, "EPHEMERIS_TYPE": 0, "CLASSIFICATION_TYPE": "U", "NORAD_CAT_ID": 66901, "ELEMENT_SET_NO": 999, "REV_AT_EPOCH": 368, "BSTAR": -0.00039237782, "MEAN_MOTION_DOT": -0.00057832, "MEAN_MOTION_DDOT": 0}, "tle": {"line1": "1 66901U 25283Z   25354.58336806 -.00057832  00000+0 -39238-3 0  9994", "line2": "2 66901  53.1576  34.3991 0001515  62.4467 295.7649 15.74240491  3687"}}, "geometry": {"type": "Point", "coordinates": [175.6917235464504, 38.966358817051926]}}, {"type": "Feature", "properties": {"norad_id": 66902, "name": "STARLINK-35983", "group": "last-30-days", "lat": 37.54660558347014, "lon": 177.82841934419153, "alt_km": 340.6178946419659, "timestamp": "2025-12-20T20:38:43.174141+00:00", "meta": {"OBJECT_NAME": "STARLINK-35983", "OBJECT_ID": "2025-283AA", "EPOCH": "2025-12-20T14:00:03.000384", "MEAN_MOTION": 15.74298606, "ECCENTRICITY": 0.0001647, "INCLINATION": 53.1573, "RA_OF_ASC_NODE": 34.395, "ARG_OF_PERICENTER": 84.305, "MEAN_ANOMALY": 275.9649, "EPHEMERIS_TYPE": 0, "CLASSIFICATION_TYPE": "U", "NORAD_CAT_ID": 66902, "ELEMENT_SET_NO": 999, "REV_AT_EPOCH": 369, "BSTAR": 0.0016700475, "MEAN_MOTION_DOT": 0.00252621, "MEAN_MOTION_DDOT": 0}, "tle": {"line1": "1 66902U 25283AA  25354.58336806  .00252621  00000+0  16700-2 0  9994", "line2": "2 66902  53.1573  34.3950 0001647  84.3050 275.9649 15.74298606  3699"}}, "geometry": {"type": "Point", "coordinates": [177.82841934419153, 37.54660558347014]}}, {"type": "Feature", "properties": {"norad_id": 66903, "name": "STARLINK-36077", "group": "last-30-days", "lat": 36.46028953937119, "lon": 179.37373556493966, "alt_km": 341.75342063956487, "timestamp": "2025-12-20T20:38:43.174151+00:00", "meta": {"OBJECT_NAME": "STARLINK-36077", "OBJECT_ID": "2025-283AB", "EPOCH": "2025-12-20T14:00:03.000384", "MEAN_MOTION": 15.74161655, "ECCENTRICITY": 0.00011001, "INCLINATION": 53.1574, "RA_OF_ASC_NODE": 34.3914, "ARG_OF_PERICENTER": 87.9611, "MEAN_ANOMALY": 274.1541, "EPHEMERIS_TYPE": 0, "CLASSIFICATION_TYPE": "U", "NORAD_CAT_ID": 66903, "ELEMENT_SET_NO": 999, "REV_AT_EPOCH": 369, "BSTAR": 0.00018898663, "MEAN_MOTION_DOT": 0.00027105, "MEAN_MOTION_DDOT": 0}, "tle": {"line1": "1 66903U 25283AB  25354.58336806  .00027105  00000+0  18899-3 0  9994", "line2": "2 66903  53.1574  34.3914 0001100  87.9611 274.1541 15.74161655  3692"}}, "geometry": {"type": "Point", "coordinates": [179.37373556493966, 36.46028953937119]}}, {"type": "Feature", "properties": {"norad_id": 66904, "name": "STARLINK-36059", "group": "last-30-days", "lat": 35.171123714462226, "lon": -178.882038159519, "alt_km": 342.0856835957138, "timestamp": "2025-12-20T20:38:43.174164+00:00", "meta": {"OBJECT_NAME": "STARLINK-36059", "OBJECT_ID": "2025-283AC", "EPOCH": "2025-12-20T14:00:03.000384", "MEAN_MOTION": 15.74172174, "ECCENTRICITY": 0.00010301, "INCLINATION": 53.1576, "RA_OF_ASC_NODE": 34.3869, "ARG_OF_PERICENTER": 79.5375, "MEAN_ANOMALY": 284.4854, "EPHEMERIS_TYPE": 0, "CLASSIFICATION_TYPE": "U", "NORAD_CAT_ID": 66904, "ELEMENT_SET_NO": 999, "REV_AT_EPOCH": 369, "BSTAR": 6.1291416e-05, "MEAN_MOTION_DOT": 8.35e-05, "MEAN_MOTION_DDOT": 0}, "tle": {"line1": "1 66904U 25283AC  25354.58336806  .00008350  00000+0  61291-4 0  9991", "line2": "2 66904  53.1576  34.3869 0001030  79.5375 284.4854 15.74172174  3699"}}, "geometry": {"type": "Point", "coordinates": [-178.882038159519, 35.171123714462226]}}, {"type": "Feature", "properties": {"norad_id": 66905, "name": "STARLINK-36075", "group": "last-30-days", "lat": 33.85338581024795, "lon": -177.18693854181106, "alt_km": 342.3374231751377, "timestamp": "2025-12-20T20:38:43.174174+00:00", "meta": {"OBJECT_NAME": "STARLINK-36075", "OBJECT_ID": "2025-283AD", "EPOCH": "2025-12-20T14:00:03.000384", "MEAN_MOTION": 15.74171962, "ECCENTRICITY": 0.00011814, "INCLINATION": 53.1576, "RA_OF_ASC_NODE": 34.3833, "ARG_OF_PERICENTER": 73.1222, "MEAN_ANOMALY": 292.8188, "EPHEMERIS_TYPE": 0, "CLASSIFICATION_TYPE": "U", "NORAD_CAT_ID": 66905, "ELEMENT_SET_NO": 999, "REV_AT_EPOCH": 369, "BSTAR": 5.1285458e-05, "MEAN_MOTION_DOT": 6.882e-05, "MEAN_MOTION_DDOT": 0}, "tle": {"line1": "1 66905U 25283AD  25354.58336806  .00006882  00000+0  51285-4 0  9992", "line2": "2 66905  53.1576  34.3833 0001181  73.1222 292.8188 15.74171962  3696"}}, "geometry": {"type": "Point", "coordinates": [-177.18693854181106, 33.85338581024795]}}, {"type": "Feature", "properties": {"norad_id": 66906, "name": "1998-067XS", "group": "last-30-days", "lat": 44.65601536385065, "lon": 153.6515760612802, "alt_km": 409.7814757099932, "timestamp": "2025-12-20T20:38:43.174184+00:00", "meta": {"OBJECT_NAME": "1998-067XS", "OBJECT_ID": "1998-067XS", "EPOCH": "2025-12-20T11:05:35.991168", "MEAN_MOTION": 15.50962254, "ECCENTRICITY": 0.00030029, "INCLINATION": 51.6311, "RA_OF_ASC_NODE": 104.1082, "ARG_OF_PERICENTER": 237.5, "MEAN_ANOMALY": 122.5699, "EPHEMERIS_TYPE": 0, "CLASSIFICATION_TYPE": "U", "NORAD_CAT_ID": 66906, "ELEMENT_SET_NO": 999, "REV_AT_EPOCH": 281, "BSTAR": 0.00037246497, "MEAN_MOTION_DOT": 0.00021596, "MEAN_MOTION_DDOT": 0}, "tle": {"line1": "1 66906U 98067XS  25354.46222212  .00021596  00000+0  37246-3 0  9994", "line2": "2 66906  51.6311 104.1082 0003002 237.5000 122.5699 15.50962254  2818"}}, "geometry": {"type": "Point", "coordinates": [153.6515760612802, 44.65601536385065]}}, {"type": "Feature", "properties": {"norad_id": 66907, "name": "1998-067XT", "group": "last-30-days", "lat": 46.12106761388009, "lon": -133.45184857704197, "alt_km": 405.93106116386116, "timestamp": "2025-12-20T20:38:43.174194+00:00", "meta": {"OBJECT_NAME": "1998-067XT", "OBJECT_ID": "1998-067XT", "EPOCH": "2025-12-19T11:42:50.767776", "MEAN_MOTION": 15.52255247, "ECCENTRICITY": 0.0003998, "INCLINATION": 51.6306, "RA_OF_ASC_NODE": 108.8528, "ARG_OF_PERICENTER": 265.7173, "MEAN_ANOMALY": 94.336, "EPHEMERIS_TYPE": 0, "CLASSIFICATION_TYPE": "U", "NORAD_CAT_ID": 66907, "ELEMENT_SET_NO": 999, "REV_AT_EPOCH": 266, "BSTAR": 0.00077339, "MEAN_MOTION_DOT": 0.00047666, "MEAN_MOTION_DDOT": 0}, "tle": {"line1": "1 66907U 98067XT  25353.48808759  .00047666  00000+0  77339-3 0  9995", "line2": "2 66907  51.6306 108.8528 0003998 265.7173  94.3360 15.52255247  2660"}}, "geometry": {"type": "Point", "coordinates": [-133.45184857704197, 46.12106761388009]}}]}